CTC1_L_00157001-01
1 70974U 24815XU  26070.40833333  .00000000  00000+0  00000-0 0  9998
2 70974 100.0000   0.0000 0000000   0.0000   0.0000 14.06899812    19
CTC1_L_00157001-02
1 70975U 25380K   26070.40833333  .00000000  00000+0  00000-0 0  9997
2 70975 100.0000   0.0000 0000000   0.0000  90.0000 14.06899812    19
CTC1_L_00157001-03
1 70976U 22176RQ  26070.40833333  .00000000  00000+0  00000-0 0  9998
2 70976 100.0000   0.0000 0000000   0.0000 180.0000 14.06899812    10
CTC1_L_00157001-04
1 70977U 23129T   26070.40833333  .00000000  00000+0  00000-0 0  9998
2 70977 100.0000   0.0000 0000000   0.0000 270.0000 14.06899812    11
CTC1_L_00157002-01
1 70978U 22295VI  26070.40833333  .00000000  00000+0  00000-0 0  9992
2 70978 100.0000  12.0000 0000000   0.0000  12.0000 14.06899812    19
CTC1_L_00157002-02
1 70979U 23477RX  26070.40833333  .00000000  00000+0  00000-0 0  9996
2 70979 100.0000  12.0000 0000000   0.0000 102.0000 14.06899812    10
CTC1_L_00157002-03
1 70980U 24070YC  26070.40833333  .00000000  00000+0  00000-0 0  9998
2 70980 100.0000  12.0000 0000000   0.0000 192.0000 14.06899812    11
CTC1_L_00157002-04
1 70981U 22666FX  26070.40833333  .00000000  00000+0  00000-0 0  9998
2 70981 100.0000  12.0000 0000000   0.0000 282.0000 14.06899812    12
CTC1_L_00157003-01
1 70982U 26177HE  26070.40833333  .00000000  00000+0  00000-0 0  9990
2 70982 100.0000  24.0000 0000000   0.0000  24.0000 14.06899812    10
CTC1_L_00157003-02
1 70983U 23796EU  26070.40833333  .00000000  00000+0  00000-0 0  9995
2 70983 100.0000  24.0000 0000000   0.0000 114.0000 14.06899812    11
CTC1_L_00157003-03
1 70984U 22499VQ  26070.40833333  .00000000  00000+0  00000-0 0  9995
2 70984 100.0000  24.0000 0000000   0.0000 204.0000 14.06899812    12
CTC1_L_00157003-04
1 70985U 23203MN  26070.40833333  .00000000  00000+0  00000-0 0  9990
2 70985 100.0000  24.0000 0000000   0.0000 294.0000 14.06899812    12
CTC1_L_00157004-01
1 70986U 23877IM  26070.40833333  .00000000  00000+0  00000-0 0  9998
2 70986 100.0000  36.0000 0000000   0.0000  36.0000 14.06899812    10
CTC1_L_00157004-02
1 70987U 25745BL  26070.40833333  .00000000  00000+0  00000-0 0  9995
2 70987 100.0000  36.0000 0000000   0.0000 126.0000 14.06899812    11
CTC1_L_00157004-03
1 70988U 25405QY  26070.40833333  .00000000  00000+0  00000-0 0  9999
2 70988 100.0000  36.0000 0000000   0.0000 216.0000 14.06899812    12
CTC1_L_00157004-04
1 70989U 26406QX  26070.40833333  .00000000  00000+0  00000-0 0  9992
2 70989 100.0000  36.0000 0000000   0.0000 306.0000 14.06899812    13
CTC1_L_00157005-01
1 70990U 26767HQ  26070.40833333  .00000000  00000+0  00000-0 0  9994
2 70990 100.0000  48.0000 0000000   0.0000  48.0000 14.06899812    11
CTC1_L_00157005-02
1 70991U 25072WM  26070.40833333  .00000000  00000+0  00000-0 0  9993
2 70991 100.0000  48.0000 0000000   0.0000 138.0000 14.06899812    12
CTC1_L_00157005-03
1 70992U 26505NZ  26070.40833333  .00000000  00000+0  00000-0 0  9996
2 70992 100.0000  48.0000 0000000   0.0000 228.0000 14.06899812    13
CTC1_L_00157005-04
1 70993U 24685TT  26070.40833333  .00000000  00000+0  00000-0 0  9994
2 70993 100.0000  48.0000 0000000   0.0000 318.0000 14.06899812    14
CTC1_L_00157006-01
1 70994U 25343HV  26070.40833333  .00000000  00000+0  00000-0 0  9997
2 70994 100.0000  60.0000 0000000   0.0000  60.0000 14.06899812    13
CTC1_L_00157006-02
1 70995U 26264GO  26070.40833333  .00000000  00000+0  00000-0 0  9991
2 70995 100.0000  60.0000 0000000   0.0000 150.0000 14.06899812    14
CTC1_L_00157006-03
1 70996U 26860BU  26070.40833333  .00000000  00000+0  00000-0 0  9994
2 70996 100.0000  60.0000 0000000   0.0000 240.0000 14.06899812    15
CTC1_L_00157006-04
1 70997U 25958AR  26070.40833333  .00000000  00000+0  00000-0 0  9992
2 70997 100.0000  60.0000 0000000   0.0000 330.0000 14.06899812    16
CTC1_L_00157007-01
1 70998U 25905ZB  26070.40833333  .00000000  00000+0  00000-0 0  9995
2 70998 100.0000  72.0000 0000000   0.0000  72.0000 14.06899812    13
CTC1_L_00157007-02
1 70999U 26860KJ  26070.40833333  .00000000  00000+0  00000-0 0  9997
2 70999 100.0000  72.0000 0000000   0.0000 162.0000 14.06899812    14
CTC1_L_00157007-03
1 71000U 22431MK  26070.40833333  .00000000  00000+0  00000-0 0  9991
2 71000 100.0000  72.0000 0000000   0.0000 252.0000 14.06899812    18
CTC1_L_00157007-04
1 71001U 24325IM  26070.40833333  .00000000  00000+0  00000-0 0  9996
2 71001 100.0000  72.0000 0000000   0.0000 342.0000 14.06899812    19
CTC1_L_00157008-01
1 71002U 24250GG  26070.40833333  .00000000  00000+0  00000-0 0  9994
2 71002 100.0000  84.0000 0000000   0.0000  84.0000 14.06899812    16
CTC1_L_00157008-02
1 71003U 24073IQ  26070.40833333  .00000000  00000+0  00000-0 0  9998
2 71003 100.0000  84.0000 0000000   0.0000 174.0000 14.06899812    17
CTC1_L_00157008-03
1 71004U 22132IJ  26070.40833333  .00000000  00000+0  00000-0 0  9993
2 71004 100.0000  84.0000 0000000   0.0000 264.0000 14.06899812    18
CTC1_L_00157008-04
1 71005U 23318PO  26070.40833333  .00000000  00000+0  00000-0 0  9991
2 71005 100.0000  84.0000 0000000   0.0000 354.0000 14.06899812    19
CTC1_L_00157009-01
1 71006U 26697SE  26070.40833333  .00000000  00000+0  00000-0 0  9995
2 71006 100.0000  96.0000 0000000   0.0000  96.0000 14.06899812    16
CTC1_L_00157009-02
1 71007U 26614TK  26070.40833333  .00000000  00000+0  00000-0 0  9995
2 71007 100.0000  96.0000 0000000   0.0000 186.0000 14.06899812    17
CTC1_L_00157009-03
1 71008U 24793OF  26070.40833333  .00000000  00000+0  00000-0 0  9992
2 71008 100.0000  96.0000 0000000   0.0000 276.0000 14.06899812    18
CTC1_L_00157009-04
1 71009U 23569WQ  26070.40833333  .00000000  00000+0  00000-0 0  9993
2 71009 100.0000  96.0000 0000000   0.0000   6.0000 14.06899812    10
CTC1_L_00157010-01
1 71010U 22406FW  26070.40833333  .00000000  00000+0  00000-0 0  9994
2 71010 100.0000 108.0000 0000000   0.0000 108.0000 14.06899812    19
CTC1_L_00157010-02
1 71011U 23282AN  26070.40833333  .00000000  00000+0  00000-0 0  9998
2 71011 100.0000 108.0000 0000000   0.0000 198.0000 14.06899812    19
CTC1_L_00157010-03
1 71012U 23561RA  26070.40833333  .00000000  00000+0  00000-0 0  9999
2 71012 100.0000 108.0000 0000000   0.0000 288.0000 14.06899812    10
CTC1_L_00157010-04
1 71013U 24757XV  26070.40833333  .00000000  00000+0  00000-0 0  9998
2 71013 100.0000 108.0000 0000000   0.0000  18.0000 14.06899812    12
CTC1_L_00157011-01
1 71014U 26728X   26070.40833333  .00000000  00000+0  00000-0 0  9999
2 71014 100.0000 120.0000 0000000   0.0000 120.0000 14.06899812    11
CTC1_L_00157011-02
1 71015U 22260HJ  26070.40833333  .00000000  00000+0  00000-0 0  9997
2 71015 100.0000 120.0000 0000000   0.0000 210.0000 14.06899812    12
CTC1_L_00157011-03
1 71016U 26871YT  26070.40833333  .00000000  00000+0  00000-0 0  9990
2 71016 100.0000 120.0000 0000000   0.0000 300.0000 14.06899812    13
CTC1_L_00157011-04
1 71017U 24146YT  26070.40833333  .00000000  00000+0  00000-0 0  9994
2 71017 100.0000 120.0000 0000000   0.0000  30.0000 14.06899812    14
CTC1_L_00157012-01
1 71018U 24253MD  26070.40833333  .00000000  00000+0  00000-0 0  9994
2 71018 100.0000 132.0000 0000000   0.0000 132.0000 14.06899812    11
CTC1_L_00157012-02
1 71019U 24016LM  26070.40833333  .00000000  00000+0  00000-0 0  9992
2 71019 100.0000 132.0000 0000000   0.0000 222.0000 14.06899812    12
CTC1_L_00157012-03
1 71020U 24210G   26070.40833333  .00000000  00000+0  00000-0 0  9990
2 71020 100.0000 132.0000 0000000   0.0000 312.0000 14.06899812    14
CTC1_L_00157012-04
1 71021U 22529NE  26070.40833333  .00000000  00000+0  00000-0 0  9992
2 71021 100.0000 132.0000 0000000   0.0000  42.0000 14.06899812    15
CTC1_L_00157013-01
1 71022U 22782GC  26070.40833333  .00000000  00000+0  00000-0 0  9994
2 71022 100.0000 144.0000 0000000   0.0000 144.0000 14.06899812    12
CTC1_L_00157013-02
1 71023U 24509CS  26070.40833333  .00000000  00000+0  00000-0 0  9994
2 71023 100.0000 144.0000 0000000   0.0000 234.0000 14.06899812    13
CTC1_L_00157013-03
1 71024U 25475JZ  26070.40833333  .00000000  00000+0  00000-0 0  9998
2 71024 100.0000 144.0000 0000000   0.0000 324.0000 14.06899812    14
CTC1_L_00157013-04
1 71025U 26124EQ  26070.40833333  .00000000  00000+0  00000-0 0  9991
2 71025 100.0000 144.0000 0000000   0.0000  54.0000 14.06899812    15
CTC1_L_00157014-01
1 71026U 23327JZ  26070.40833333  .00000000  00000+0  00000-0 0  9994
2 71026 100.0000 156.0000 0000000   0.0000 156.0000 14.06899812    12
CTC1_L_00157014-02
1 71027U 22945MM  26070.40833333  .00000000  00000+0  00000-0 0  9990
2 71027 100.0000 156.0000 0000000   0.0000 246.0000 14.06899812    13
CTC1_L_00157014-03
1 71028U 24425QV  26070.40833333  .00000000  00000+0  00000-0 0  9996
2 71028 100.0000 156.0000 0000000   0.0000 336.0000 14.06899812    14
CTC1_L_00157014-04
1 71029U 23693XR  26070.40833333  .00000000  00000+0  00000-0 0  9993
2 71029 100.0000 156.0000 0000000   0.0000  66.0000 14.06899812    15
CTC1_L_00157015-01
1 71030U 25851JB  26070.40833333  .00000000  00000+0  00000-0 0  9993
2 71030 100.0000 168.0000 0000000   0.0000 168.0000 14.06899812    13
CTC1_L_00157015-02
1 71031U 25729RZ  26070.40833333  .00000000  00000+0  00000-0 0  9998
2 71031 100.0000 168.0000 0000000   0.0000 258.0000 14.06899812    14
CTC1_L_00157015-03
1 71032U 22336ZL  26070.40833333  .00000000  00000+0  00000-0 0  9990
2 71032 100.0000 168.0000 0000000   0.0000 348.0000 14.06899812    15
CTC1_L_00157015-04
1 71033U 24344P   26070.40833333  .00000000  00000+0  00000-0 0  9992
2 71033 100.0000 168.0000 0000000   0.0000  78.0000 14.06899812    16
CTC1_L_00157016-01
1 71034U 22478RX  26070.40833333  .00000000  00000+0  00000-0 0  9999
2 71034 100.0000 180.0000 0000000   0.0000 180.0000 14.06899812    15
CTC1_L_00157016-02
1 71035U 25183RU  26070.40833333  .00000000  00000+0  00000-0 0  9996
2 71035 100.0000 180.0000 0000000   0.0000 270.0000 14.06899812    16
